     2.100          NAVIGATION                              RINEX VERSION / TYPE
fic2rin                                 06/28/2014 00:16:03 PGM / RUN BY / DATE
                                                            END OF HEADER
11 14  6 27  4  0  0.0 -.500597525388D-03 -.306954461848D-11  .000000000000D+00
     .370000000000D+02  .968750000000D+00  .599596404168D-08 -.247826992319D+01
    -.121071934700D-06  .150895394618D-01  .925175845623D-05  .515370545959D+04
     .446400000000D+06  .249594449997D-06 -.252457040997D+01  .353902578354D-07
     .890926037000D+00  .157062500000D+03  .129589816606D+01 -.834820487910D-08
     .758960185167D-09  .100000000000D+01  .179800000000D+04  .000000000000D+00
     .240000000000D+01  .000000000000D+00 -.121071934700D-07  .370000000000D+02
     .439206000000D+06  .400000000000D+01
12 14  6 27  4  0  0.0  .214222818613D-03  .250111042988D-11  .000000000000D+00
     .800000000000D+02 -.778125000000D+02  .390587698117D-08 -.310311222759D+01
    -.400841236115D-05  .514457351528D-02  .206753611565D-05  .515360050201D+04
     .446400000000D+06 -.316649675369D-07  .202585121053D+01 -.465661287308D-07
     .987605019039D+00  .353375000000D+03  .469221241131D+00 -.796604610351D-08
    -.127505311108D-09  .100000000000D+01  .179800000000D+04  .000000000000D+00
     .240000000000D+01  .000000000000D+00 -.121071934700D-07  .800000000000D+02
     .439206000000D+06  .400000000000D+01
13 14  6 27  4  0  0.0 -.146087259054D-04 -.386535248253D-11  .000000000000D+00
     .380000000000D+02  .584687500000D+02  .378694345568D-08 -.325534975153D+00
     .297278165817D-05  .536419998389D-02  .117123126984D-04  .515357820320D+04
     .446400000000D+06 -.838190317154D-07 -.193808118600D-02 -.109896063805D-06
     .977684425875D+00  .163343750000D+03  .229784014361D+01 -.759210195581D-08
    -.393944980818D-09  .100000000000D+01  .179800000000D+04  .000000000000D+00
     .240000000000D+01  .000000000000D+00 -.111758708954D-07  .380000000000D+02
     .439206000000D+06  .400000000000D+01
14 14  6 27  4  0  0.0  .159861519933D-03 -.352429196937D-11  .000000000000D+00
     .730000000000D+02  .650625000000D+02  .407731269358D-08  .490268218668D-01
     .346638262272D-05  .765725167003D-02  .110175460577D-04  .515368304634D+04
     .446400000000D+06 -.521540641785D-07 -.339919256144D-01  .838190317154D-07
     .970223954751D+00  .174062500000D+03 -.200163079795D+01 -.779211028696D-08
    -.435375277985D-09  .100000000000D+01  .179800000000D+04  .000000000000D+00
     .340000000000D+01  .000000000000D+00 -.931322574615D-08  .730000000000D+02
     .439206000000D+06  .400000000000D+01
15 14  6 27  4  0  0.0 -.187629368156D-03 -.216004991671D-11  .000000000000D+00
     .111000000000D+03  .358437500000D+02  .478519932276D-08 -.570411139845D+00
     .176392495632D-05  .630338490009D-02  .105574727058D-04  .515371916580D+04
     .446400000000D+06  .156462192535D-06 -.146925197327D+00  .577419996262D-07
     .936749055107D+00  .165250000000D+03  .274381358593D+00 -.807212195057D-08
    -.532522181686D-09  .100000000000D+01  .179800000000D+04  .000000000000D+00
     .340000000000D+01  .000000000000D+00 -.102445483208D-07  .111000000000D+03
     .439206000000D+06  .400000000000D+01
16 14  6 27  4  0  0.0 -.210882630199D-03  .216004991671D-11  .000000000000D+00
     .410000000000D+02 -.785937500000D+02  .396337937637D-08  .105922975153D+01
    -.397674739361D-05  .772059615701D-02  .201724469662D-05  .515361249352D+04
     .446400000000D+06 -.670552253723D-07  .204442448722D+01  .169500708580D-06
     .988212697654D+00  .354718750000D+03  .226964756027D+00 -.808283668259D-08
    -.254653464482D-09  .100000000000D+01  .179800000000D+04  .000000000000D+00
     .240000000000D+01  .000000000000D+00 -.102445483208D-07  .410000000000D+02
     .439206000000D+06  .400000000000D+01
17 14  6 27  4  0  0.0 -.104422215372D-03 -.295585778076D-11  .000000000000D+00
     .990000000000D+02 -.941562500000D+02  .411374278247D-08  .140082986104D+00
    -.502727925777D-05  .931030604988D-02  .102575868368D-04  .515361726570D+04
     .446400000000D+06 -.104308128357D-06  .307581456976D+01  .135973095894D-06
     .969431518360D+00  .191250000000D+03 -.209838778717D+01 -.784104089654D-08
     .164292557730D-09  .100000000000D+01  .179800000000D+04  .000000000000D+00
     .340000000000D+01  .000000000000D+00 -.102445483208D-07  .990000000000D+02
     .439206000000D+06  .400000000000D+01
18 14  6 27  4  0  0.0  .327992718667D-03  .238742359215D-11  .000000000000D+00
     .520000000000D+02 -.268750000000D+02  .577809782382D-08  .170541432348D+01
    -.165402889252D-05  .154382010223D-01  .565126538277D-05  .515369815826D+04
     .446400000000D+06 -.303611159325D-06 -.116616144863D+01 -.288709998131D-06
     .925292215095D+00  .256406250000D+03 -.202817248262D+01 -.857428572485D-08
    -.372515516767D-09  .100000000000D+01  .179800000000D+04  .000000000000D+00
     .240000000000D+01  .000000000000D+00 -.111758708954D-07  .520000000000D+02
     .439206000000D+06  .400000000000D+01
19 14  6 27  4  0  0.0 -.464964658022D-03 -.216004991671D-11  .000000000000D+00
     .410000000000D+02 -.925312500000D+02  .412624330317D-08 -.667301858795D+00
    -.465475022793D-05  .104861711152D-01  .106263905764D-04  .515363391876D+04
     .446400000000D+06  .206753611565D-06  .312650364253D+01  .856816768646D-07
     .966551743640D+00  .174625000000D+03  .453521012662D+00 -.782175437889D-08
     .228580949885D-09  .100000000000D+01  .179800000000D+04  .000000000000D+00
     .240000000000D+01  .000000000000D+00 -.149011611938D-07  .410000000000D+02
     .439206000000D+06  .400000000000D+01
20 14  6 27  4  0  0.0  .204335898161D-03  .409272615798D-11  .000000000000D+00
     .240000000000D+02 -.162187500000D+02  .575452541337D-08  .221527988344D+01
    -.100396573544D-05  .574877485633D-02  .484660267830D-05  .515376343727D+04
     .446400000000D+06  .260770320892D-07 -.121922153272D+01 -.104308128357D-06
     .926288193130D+00  .264843750000D+03  .133010070214D+01 -.846999566646D-08
    -.304298389535D-09  .100000000000D+01  .179800000000D+04  .000000000000D+00
     .240000000000D+01  .000000000000D+00 -.838190317154D-08  .240000000000D+02
     .439206000000D+06  .400000000000D+01
21 14  6 27  4  0  0.0 -.369329471141D-03 -.216004991671D-11  .000000000000D+00
     .330000000000D+02  .243437500000D+02  .527664836501D-08  .265696508277D+01
     .105425715446D-05  .215285969898D-01  .750832259655D-05  .515373460388D+04
     .446400000000D+06  .109896063805D-06 -.221155741816D+01 -.253319740295D-06
     .932368567819D+00  .218656250000D+03 -.201348018130D+01 -.791318675885D-08
     .582524264474D-09  .100000000000D+01  .179800000000D+04  .000000000000D+00
     .240000000000D+01  .000000000000D+00 -.111758708954D-07  .330000000000D+02
     .439206000000D+06  .400000000000D+01
22 14  6 27  4  0  0.0  .245430506766D-03  .318323145621D-11  .000000000000D+00
     .560000000000D+02 -.200312500000D+02  .596596279201D-08  .114496896926D+01
    -.994652509689D-06  .735008600168D-02  .554323196411D-05  .515371735001D+04
     .446400000000D+06 -.137835741043D-06 -.116433153853D+01  .875443220139D-07
     .923072530956D+00  .256250000000D+03 -.205259044181D+01 -.874464996406D-08
    -.390373403476D-09  .100000000000D+01  .179800000000D+04  .000000000000D+00
     .240000000000D+01  .000000000000D+00 -.172294676304D-07  .560000000000D+02
     .439206000000D+06  .400000000000D+01
23 14  6 27  4  0  0.0 -.319429673254D-04 -.306954461848D-11  .000000000000D+00
     .920000000000D+02  .488125000000D+02  .441446959466D-08 -.102910483480D+01
     .238418579102D-05  .954627851024D-02  .112541019917D-04  .515377321625D+04
     .446400000000D+06  .195577740669D-06 -.998236166143D-01 -.115483999252D-06
     .951856419932D+00  .157218750000D+03 -.277034070434D+01 -.780996817367D-08
    -.479305679291D-09  .100000000000D+01  .179800000000D+04  .000000000000D+00
     .240000000000D+01  .000000000000D+00 -.200234353542D-07  .920000000000D+02
     .439206000000D+06  .400000000000D+01
24 14  6 27  4  0  0.0 -.308318994939D-04 -.682121026330D-12  .000000000000D+00
     .890000000000D+02  .117906250000D+03  .443768484739D-08 -.183166608477D+01
     .625289976597D-05  .207645352930D-02  .442564487457D-05  .515372793388D+04
     .446400000000D+06 -.782310962677D-07  .926719683743D+00 -.558793544769D-08
     .956631677126D+00  .294093750000D+03  .340022007121D+00 -.812319550656D-08
     .212508851847D-09  .100000000000D+01  .179800000000D+04  .000000000000D+00
     .240000000000D+01  .000000000000D+00  .279396772385D-08  .890000000000D+02
     .439206000000D+06  .400000000000D+01
26 14  6 27  4  0  0.0  .335052609444D-04 -.123918653117D-10  .000000000000D+00
     .530000000000D+02  .653125000000D+02  .393444959990D-08 -.111830810796D+01
     .357441604137D-05  .212690052576D-01  .106915831566D-04  .515370163155D+04
     .446400000000D+06 -.447034835815D-07 -.107841902791D-01  .543892383575D-06
     .975062733311D+00  .183687500000D+03  .128779092422D+01 -.780211070351D-08
    -.449304429619D-09  .100000000000D+01  .179800000000D+04  .000000000000D+00
     .240000000000D+01  .000000000000D+00 -.605359673500D-08  .530000000000D+02
     .439206000000D+06  .400000000000D+01
27 14  6 27  4  0  0.0 -.684848055243D-05  .306954461848D-11  .000000000000D+00
     .830000000000D+02 -.110093750000D+03  .414731560948D-08  .950812443555D-01
    -.559911131859D-05  .136441830546D-02  .106971710920D-04  .515368121910D+04
     .446400000000D+06  .596046447754D-07  .303010785803D+01  .149011611938D-07
     .964183716682D+00  .175312500000D+03  .232551899109D+00 -.777496671571D-08
     .146791828755D-09  .100000000000D+01  .179800000000D+04  .000000000000D+00
     .240000000000D+01  .000000000000D+00  .186264514923D-08  .830000000000D+02
     .439206000000D+06  .400000000000D+01
